[{"OBJECT_NAME":"STARLINK-1843","OBJECT_ID":"2020-088M","EPOCH":"2026-03-03T12:00:00.998784","MEAN_MOTION":15.82904703,"ECCENTRICITY":0.0001445,"INCLINATION":53.0443,"RA_OF_ASC_NODE":274.4706,"ARG_OF_PERICENTER":290.168,"MEAN_ANOMALY":57.7742,"EPHEMERIS_TYPE":0,"CLASSIFICATION_TYPE":"U","NORAD_CAT_ID":47133,"ELEMENT_SET_NO":999,"REV_AT_EPOCH":590,"BSTAR":0.0012849,"MEAN_MOTION_DOT":0.00287506,"MEAN_MOTION_DDOT":0},{"OBJECT_NAME":"STARLINK-1845","OBJECT_ID":"2020-088P","EPOCH":"2026-03-03T00:00:02.000160","MEAN_MOTION":15.53042501,"ECCENTRICITY":0.0001656,"INCLINATION":53.0537,"RA_OF_ASC_NODE":309.68,"ARG_OF_PERICENTER":155.9001,"MEAN_ANOMALY":310.3165,"EPHEMERIS_TYPE":0,"CLASSIFICATION_TYPE":"U","NORAD_CAT_ID":47135,"ELEMENT_SET_NO":999,"REV_AT_EPOCH":580,"BSTAR":0.0016131098,"MEAN_MOTION_DOT":0.00103398,"MEAN_MOTION_DDOT":0},{"OBJECT_NAME":"STARLINK-1856","OBJECT_ID":"2020-088X","EPOCH":"2026-03-03T12:00:00.998784","MEAN_MOTION":15.47764356,"ECCENTRICITY":0.0008145,"INCLINATION":53.0525,"RA_OF_ASC_NODE":302.8582,"ARG_OF_PERICENTER":128.1823,"MEAN_ANOMALY":341.8477,"EPHEMERIS_TYPE":0,"CLASSIFICATION_TYPE":"U","NORAD_CAT_ID":47143,"ELEMENT_SET_NO":999,"REV_AT_EPOCH":592,"BSTAR":0.0029114,"MEAN_MOTION_DOT":0.00156241,"MEAN_MOTION_DDOT":0},{"OBJECT_NAME":"STARLINK-1871","OBJECT_ID":"2020-088AM","EPOCH":"2026-03-03T07:33:14.247936","MEAN_MOTION":15.30182079,"ECCENTRICITY":0.0001435,"INCLINATION":53.1613,"RA_OF_ASC_NODE":325.9801,"ARG_OF_PERICENTER":84.201,"MEAN_ANOMALY":275.9155,"EPHEMERIS_TYPE":0,"CLASSIFICATION_TYPE":"U","NORAD_CAT_ID":47157,"ELEMENT_SET_NO":999,"REV_AT_EPOCH":29094,"BSTAR":-0.00021157,"MEAN_MOTION_DOT":-6.616e-5,"MEAN_MOTION_DDOT":0},{"OBJECT_NAME":"STARLINK-1873","OBJECT_ID":"2020-088AN","EPOCH":"2026-03-03T01:11:17.760768","MEAN_MOTION":15.55917019,"ECCENTRICITY":0.0009971,"INCLINATION":53.0507,"RA_OF_ASC_NODE":301.0299,"ARG_OF_PERICENTER":123.8762,"MEAN_ANOMALY":236.3198,"EPHEMERIS_TYPE":0,"CLASSIFICATION_TYPE":"U","NORAD_CAT_ID":47158,"ELEMENT_SET_NO":999,"REV_AT_EPOCH":29126,"BSTAR":0.0015708,"MEAN_MOTION_DOT":0.00112196,"MEAN_MOTION_DDOT":0},{"OBJECT_NAME":"STARLINK-1876","OBJECT_ID":"2020-088AR","EPOCH":"2026-03-03T12:00:00.998784","MEAN_MOTION":15.59313699,"ECCENTRICITY":0.0002113,"INCLINATION":53.052,"RA_OF_ASC_NODE":301.9839,"ARG_OF_PERICENTER":88.8892,"MEAN_ANOMALY":301.1298,"EPHEMERIS_TYPE":0,"CLASSIFICATION_TYPE":"U","NORAD_CAT_ID":47161,"ELEMENT_SET_NO":999,"REV_AT_EPOCH":584,"BSTAR":0.010792,"MEAN_MOTION_DOT":0.00942093,"MEAN_MOTION_DDOT":0},{"OBJECT_NAME":"STARLINK-1888","OBJECT_ID":"2020-088BB","EPOCH":"2026-03-02T22:09:39.197376","MEAN_MOTION":15.46958143,"ECCENTRICITY":0.0005313,"INCLINATION":53.0544,"RA_OF_ASC_NODE":311.8321,"ARG_OF_PERICENTER":125.2016,"MEAN_ANOMALY":234.9489,"EPHEMERIS_TYPE":0,"CLASSIFICATION_TYPE":"U","NORAD_CAT_ID":47171,"ELEMENT_SET_NO":999,"REV_AT_EPOCH":29110,"BSTAR":0.00074696,"MEAN_MOTION_DOT":0.0003804,"MEAN_MOTION_DDOT":0},{"OBJECT_NAME":"STARLINK-1912","OBJECT_ID":"2020-088BJ","EPOCH":"2026-03-03T02:15:12.832128","MEAN_MOTION":15.54275537,"ECCENTRICITY":0.0009176,"INCLINATION":53.0545,"RA_OF_ASC_NODE":313.335,"ARG_OF_PERICENTER":132.0851,"MEAN_ANOMALY":228.0941,"EPHEMERIS_TYPE":0,"CLASSIFICATION_TYPE":"U","NORAD_CAT_ID":47178,"ELEMENT_SET_NO":999,"REV_AT_EPOCH":29109,"BSTAR":0.0018075,"MEAN_MOTION_DOT":0.00121702,"MEAN_MOTION_DDOT":0},{"OBJECT_NAME":"STARLINK-1913","OBJECT_ID":"2020-088BK","EPOCH":"2026-03-03T03:26:00.676032","MEAN_MOTION":15.30203611,"ECCENTRICITY":0.0001347,"INCLINATION":53.1612,"RA_OF_ASC_NODE":337.4662,"ARG_OF_PERICENTER":82.4292,"MEAN_ANOMALY":277.6862,"EPHEMERIS_TYPE":0,"CLASSIFICATION_TYPE":"U","NORAD_CAT_ID":47179,"ELEMENT_SET_NO":999,"REV_AT_EPOCH":29076,"BSTAR":0.00013473,"MEAN_MOTION_DOT":3.634e-5,"MEAN_MOTION_DDOT":0},{"OBJECT_NAME":"STARLINK-2017","OBJECT_ID":"2021-005C","EPOCH":"2026-03-03T11:57:32.915232","MEAN_MOTION":15.30193638,"ECCENTRICITY":0.0001367,"INCLINATION":53.1578,"RA_OF_ASC_NODE":42.4253,"ARG_OF_PERICENTER":94.5868,"MEAN_ANOMALY":265.5289,"EPHEMERIS_TYPE":0,"CLASSIFICATION_TYPE":"U","NORAD_CAT_ID":47351,"ELEMENT_SET_NO":999,"REV_AT_EPOCH":28277,"BSTAR":-0.00010519,"MEAN_MOTION_DOT":-3.473e-5,"MEAN_MOTION_DDOT":0},{"OBJECT_NAME":"STARLINK-2034","OBJECT_ID":"2021-005D","EPOCH":"2026-03-03T08:36:50.281920","MEAN_MOTION":15.30187109,"ECCENTRICITY":0.0001576,"INCLINATION":53.1612,"RA_OF_ASC_NODE":82.1509,"ARG_OF_PERICENTER":98.1144,"MEAN_ANOMALY":262.0035,"EPHEMERIS_TYPE":0,"CLASSIFICATION_TYPE":"U","NORAD_CAT_ID":47352,"ELEMENT_SET_NO":999,"REV_AT_EPOCH":28220,"BSTAR":7.0432e-5,"MEAN_MOTION_DOT":1.726e-5,"MEAN_MOTION_DDOT":0},{"OBJECT_NAME":"STARLINK-2045","OBJECT_ID":"2021-005E","EPOCH":"2026-03-03T05:08:36.788352","MEAN_MOTION":15.30220465,"ECCENTRICITY":0.0001396,"INCLINATION":53.1606,"RA_OF_ASC_NODE":30.7392,"ARG_OF_PERICENTER":67.7918,"MEAN_ANOMALY":292.3231,"EPHEMERIS_TYPE":0,"CLASSIFICATION_TYPE":"U","NORAD_CAT_ID":47353,"ELEMENT_SET_NO":999,"REV_AT_EPOCH":28291,"BSTAR":0.00023713,"MEAN_MOTION_DOT":6.675e-5,"MEAN_MOTION_DDOT":0},{"OBJECT_NAME":"STARLINK-2046","OBJECT_ID":"2021-005F","EPOCH":"2026-03-03T07:01:41.424384","MEAN_MOTION":15.30198286,"ECCENTRICITY":0.000138,"INCLINATION":53.1603,"RA_OF_ASC_NODE":53.6763,"ARG_OF_PERICENTER":88.1716,"MEAN_ANOMALY":271.9442,"EPHEMERIS_TYPE":0,"CLASSIFICATION_TYPE":"U","NORAD_CAT_ID":47354,"ELEMENT_SET_NO":999,"REV_AT_EPOCH":28259,"BSTAR":6.6917e-5,"MEAN_MOTION_DOT":1.623e-5,"MEAN_MOTION_DDOT":0},{"OBJECT_NAME":"STARLINK-2047","OBJECT_ID":"2021-005G","EPOCH":"2026-03-03T12:00:00.998784","MEAN_MOTION":15.16165033,"ECCENTRICITY":0.0002238,"INCLINATION":53.0937,"RA_OF_ASC_NODE":39.1798,"ARG_OF_PERICENTER":82.383,"MEAN_ANOMALY":116.5999,"EPHEMERIS_TYPE":0,"CLASSIFICATION_TYPE":"U","NORAD_CAT_ID":47355,"ELEMENT_SET_NO":999,"REV_AT_EPOCH":577,"BSTAR":0.0037102,"MEAN_MOTION_DOT":0.00072881,"MEAN_MOTION_DDOT":0},{"OBJECT_NAME":"STARLINK-2049","OBJECT_ID":"2021-005H","EPOCH":"2026-03-03T06:24:27.916992","MEAN_MOTION":15.06399469,"ECCENTRICITY":0.0001443,"INCLINATION":53.0557,"RA_OF_ASC_NODE":60.4508,"ARG_OF_PERICENTER":88.3589,"MEAN_ANOMALY":271.7566,"EPHEMERIS_TYPE":0,"CLASSIFICATION_TYPE":"U","NORAD_CAT_ID":47356,"ELEMENT_SET_NO":999,"REV_AT_EPOCH":28249,"BSTAR":3.6613e-5,"MEAN_MOTION_DOT":2.64e-6,"MEAN_MOTION_DDOT":0},{"OBJECT_NAME":"STARLINK-2050","OBJECT_ID":"2021-005J","EPOCH":"2026-03-03T10:45:57.345696","MEAN_MOTION":15.06396785,"ECCENTRICITY":0.0001474,"INCLINATION":53.0555,"RA_OF_ASC_NODE":90.0614,"ARG_OF_PERICENTER":98.2361,"MEAN_ANOMALY":261.8795,"EPHEMERIS_TYPE":0,"CLASSIFICATION_TYPE":"U","NORAD_CAT_ID":47357,"ELEMENT_SET_NO":999,"REV_AT_EPOCH":28209,"BSTAR":-1.349e-5,"MEAN_MOTION_DOT":-4.82e-6,"MEAN_MOTION_DDOT":0},{"OBJECT_NAME":"STARLINK-2055","OBJECT_ID":"2021-005K","EPOCH":"2026-03-03T11:25:39.046368","MEAN_MOTION":15.063998,"ECCENTRICITY":0.0001441,"INCLINATION":53.0551,"RA_OF_ASC_NODE":59.5023,"ARG_OF_PERICENTER":93.4319,"MEAN_ANOMALY":266.6834,"EPHEMERIS_TYPE":0,"CLASSIFICATION_TYPE":"U","NORAD_CAT_ID":47358,"ELEMENT_SET_NO":999,"REV_AT_EPOCH":28252,"BSTAR":2.4371e-5,"MEAN_MOTION_DOT":8.2e-7,"MEAN_MOTION_DDOT":0},{"OBJECT_NAME":"STARLINK-2071","OBJECT_ID":"2021-005N","EPOCH":"2026-03-03T10:02:04.183008","MEAN_MOTION":15.0640886,"ECCENTRICITY":0.0001398,"INCLINATION":53.0557,"RA_OF_ASC_NODE":59.7722,"ARG_OF_PERICENTER":114.5883,"MEAN_ANOMALY":245.5252,"EPHEMERIS_TYPE":0,"CLASSIFICATION_TYPE":"U","NORAD_CAT_ID":47361,"ELEMENT_SET_NO":999,"REV_AT_EPOCH":28251,"BSTAR":-0.00010317,"MEAN_MOTION_DOT":-1.818e-5,"MEAN_MOTION_DDOT":0},{"OBJECT_NAME":"STARLINK-2076","OBJECT_ID":"2021-005P","EPOCH":"2026-03-03T11:07:06.349152","MEAN_MOTION":15.06400097,"ECCENTRICITY":0.0001341,"INCLINATION":53.0549,"RA_OF_ASC_NODE":89.5711,"ARG_OF_PERICENTER":97.7054,"MEAN_ANOMALY":262.4087,"EPHEMERIS_TYPE":0,"CLASSIFICATION_TYPE":"U","NORAD_CAT_ID":47362,"ELEMENT_SET_NO":999,"REV_AT_EPOCH":28210,"BSTAR":0.00014622,"MEAN_MOTION_DOT":1.897e-5,"MEAN_MOTION_DDOT":0},{"OBJECT_NAME":"STARLINK-2081","OBJECT_ID":"2021-005T","EPOCH":"2026-03-03T08:38:29.210784","MEAN_MOTION":15.06397734,"ECCENTRICITY":0.0001554,"INCLINATION":53.0552,"RA_OF_ASC_NODE":90.0311,"ARG_OF_PERICENTER":100.7964,"MEAN_ANOMALY":259.32,"EPHEMERIS_TYPE":0,"CLASSIFICATION_TYPE":"U","NORAD_CAT_ID":47366,"ELEMENT_SET_NO":999,"REV_AT_EPOCH":28208,"BSTAR":-3.2135e-6,"MEAN_MOTION_DOT":-3.29e-6,"MEAN_MOTION_DDOT":0},{"OBJECT_NAME":"STARLINK-2082","OBJECT_ID":"2021-005U","EPOCH":"2026-03-03T10:51:11.279232","MEAN_MOTION":15.06396654,"ECCENTRICITY":0.0001327,"INCLINATION":53.0546,"RA_OF_ASC_NODE":89.6211,"ARG_OF_PERICENTER":88.6947,"MEAN_ANOMALY":271.4194,"EPHEMERIS_TYPE":0,"CLASSIFICATION_TYPE":"U","NORAD_CAT_ID":47367,"ELEMENT_SET_NO":999,"REV_AT_EPOCH":28210,"BSTAR":1.9477e-6,"MEAN_MOTION_DOT":-2.52e-6,"MEAN_MOTION_DDOT":0},{"OBJECT_NAME":"STARLINK-2084","OBJECT_ID":"2021-005V","EPOCH":"2026-03-03T10:40:34.436928","MEAN_MOTION":15.06393462,"ECCENTRICITY":0.0001362,"INCLINATION":53.0543,"RA_OF_ASC_NODE":89.6536,"ARG_OF_PERICENTER":93.1297,"MEAN_ANOMALY":266.9848,"EPHEMERIS_TYPE":0,"CLASSIFICATION_TYPE":"U","NORAD_CAT_ID":47368,"ELEMENT_SET_NO":999,"REV_AT_EPOCH":28210,"BSTAR":3.3385e-5,"MEAN_MOTION_DOT":2.16e-6,"MEAN_MOTION_DDOT":0},{"OBJECT_NAME":"STARLINK-2088","OBJECT_ID":"2021-005Y","EPOCH":"2026-03-03T09:26:15.884160","MEAN_MOTION":15.06391255,"ECCENTRICITY":0.0001445,"INCLINATION":53.0559,"RA_OF_ASC_NODE":89.8857,"ARG_OF_PERICENTER":80.8334,"MEAN_ANOMALY":279.2818,"EPHEMERIS_TYPE":0,"CLASSIFICATION_TYPE":"U","NORAD_CAT_ID":47371,"ELEMENT_SET_NO":999,"REV_AT_EPOCH":28209,"BSTAR":-4.8627e-5,"MEAN_MOTION_DOT":-1.005e-5,"MEAN_MOTION_DDOT":0}]
